[{"OBJECT_NAME":"STARLINK-34395","OBJECT_ID":"2025-139E","EPOCH":"2026-03-09T10:38:24.266688","MEAN_MOTION":15.3021562,"ECCENTRICITY":0.00012794,"INCLINATION":53.1579,"RA_OF_ASC_NODE":128.3788,"ARG_OF_PERICENTER":82.1389,"MEAN_ANOMALY":277.9757,"EPHEMERIS_TYPE":0,"CLASSIFICATION_TYPE":"U","NORAD_CAT_ID":64668,"ELEMENT_SET_NO":999,"REV_AT_EPOCH":4024,"BSTAR":0.0011005667,"MEAN_MOTION_DOT":0.00032394,"MEAN_MOTION_DDOT":0},{"OBJECT_NAME":"STARLINK-34394","OBJECT_ID":"2025-139F","EPOCH":"2026-03-09T13:32:49.606656","MEAN_MOTION":15.30216501,"ECCENTRICITY":8.5e-5,"INCLINATION":53.1579,"RA_OF_ASC_NODE":127.715,"ARG_OF_PERICENTER":89.6476,"MEAN_ANOMALY":270.4622,"EPHEMERIS_TYPE":0,"CLASSIFICATION_TYPE":"U","NORAD_CAT_ID":64669,"ELEMENT_SET_NO":999,"REV_AT_EPOCH":4026,"BSTAR":0.00084321,"MEAN_MOTION_DOT":0.0002471,"MEAN_MOTION_DDOT":0},{"OBJECT_NAME":"STARLINK-34287","OBJECT_ID":"2025-139G","EPOCH":"2026-03-09T10:15:36.317088","MEAN_MOTION":15.30200509,"ECCENTRICITY":0.00015432,"INCLINATION":53.1591,"RA_OF_ASC_NODE":128.2814,"ARG_OF_PERICENTER":80.1154,"MEAN_ANOMALY":280.0021,"EPHEMERIS_TYPE":0,"CLASSIFICATION_TYPE":"U","NORAD_CAT_ID":64670,"ELEMENT_SET_NO":999,"REV_AT_EPOCH":4024,"BSTAR":0.00071519536,"MEAN_MOTION_DOT":0.00020883,"MEAN_MOTION_DDOT":0},{"OBJECT_NAME":"STARLINK-34365","OBJECT_ID":"2025-139H","EPOCH":"2026-03-09T10:47:30.577344","MEAN_MOTION":15.30218259,"ECCENTRICITY":0.00010975,"INCLINATION":53.1567,"RA_OF_ASC_NODE":128.4161,"ARG_OF_PERICENTER":93.2285,"MEAN_ANOMALY":266.8841,"EPHEMERIS_TYPE":0,"CLASSIFICATION_TYPE":"U","NORAD_CAT_ID":64671,"ELEMENT_SET_NO":999,"REV_AT_EPOCH":4030,"BSTAR":0.00089298382,"MEAN_MOTION_DOT":0.00026197,"MEAN_MOTION_DDOT":0},{"OBJECT_NAME":"STARLINK-34442","OBJECT_ID":"2025-139J","EPOCH":"2026-03-09T13:03:58.038336","MEAN_MOTION":15.30154393,"ECCENTRICITY":0.00013466,"INCLINATION":53.1601,"RA_OF_ASC_NODE":127.5866,"ARG_OF_PERICENTER":68.2314,"MEAN_ANOMALY":291.883,"EPHEMERIS_TYPE":0,"CLASSIFICATION_TYPE":"U","NORAD_CAT_ID":64672,"ELEMENT_SET_NO":999,"REV_AT_EPOCH":4026,"BSTAR":0.00054284387,"MEAN_MOTION_DOT":0.0001573,"MEAN_MOTION_DDOT":0},{"OBJECT_NAME":"STARLINK-34288","OBJECT_ID":"2025-139K","EPOCH":"2026-03-09T13:13:04.660032","MEAN_MOTION":15.30189984,"ECCENTRICITY":0.0001552,"INCLINATION":53.1606,"RA_OF_ASC_NODE":127.6292,"ARG_OF_PERICENTER":69.0226,"MEAN_ANOMALY":291.0941,"EPHEMERIS_TYPE":0,"CLASSIFICATION_TYPE":"U","NORAD_CAT_ID":64673,"ELEMENT_SET_NO":999,"REV_AT_EPOCH":4026,"BSTAR":0.00091259,"MEAN_MOTION_DOT":0.00026758,"MEAN_MOTION_DDOT":0},{"OBJECT_NAME":"STARLINK-34539","OBJECT_ID":"2025-139L","EPOCH":"2026-03-09T12:59:23.978400","MEAN_MOTION":15.30185272,"ECCENTRICITY":0.00013604,"INCLINATION":53.1596,"RA_OF_ASC_NODE":127.5676,"ARG_OF_PERICENTER":79.8701,"MEAN_ANOMALY":280.2453,"EPHEMERIS_TYPE":0,"CLASSIFICATION_TYPE":"U","NORAD_CAT_ID":64674,"ELEMENT_SET_NO":999,"REV_AT_EPOCH":4016,"BSTAR":0.00055720368,"MEAN_MOTION_DOT":0.00016172,"MEAN_MOTION_DDOT":0},{"OBJECT_NAME":"STARLINK-34590","OBJECT_ID":"2025-139M","EPOCH":"2026-03-09T12:36:45.895680","MEAN_MOTION":15.30190641,"ECCENTRICITY":0.00012551,"INCLINATION":53.1577,"RA_OF_ASC_NODE":128.1794,"ARG_OF_PERICENTER":77.9254,"MEAN_ANOMALY":282.1887,"EPHEMERIS_TYPE":0,"CLASSIFICATION_TYPE":"U","NORAD_CAT_ID":64675,"ELEMENT_SET_NO":999,"REV_AT_EPOCH":4025,"BSTAR":0.0009494248,"MEAN_MOTION_DOT":0.00027857,"MEAN_MOTION_DDOT":0},{"OBJECT_NAME":"STARLINK-34573","OBJECT_ID":"2025-139N","EPOCH":"2026-03-09T09:37:36.765408","MEAN_MOTION":15.30201397,"ECCENTRICITY":0.00011304,"INCLINATION":53.1576,"RA_OF_ASC_NODE":128.1133,"ARG_OF_PERICENTER":100.9056,"MEAN_ANOMALY":259.2072,"EPHEMERIS_TYPE":0,"CLASSIFICATION_TYPE":"U","NORAD_CAT_ID":64676,"ELEMENT_SET_NO":999,"REV_AT_EPOCH":4024,"BSTAR":0.00055579917,"MEAN_MOTION_DOT":0.00016139,"MEAN_MOTION_DDOT":0},{"OBJECT_NAME":"STARLINK-34605","OBJECT_ID":"2025-139P","EPOCH":"2026-03-09T12:07:50.499840","MEAN_MOTION":15.30141117,"ECCENTRICITY":8.127e-5,"INCLINATION":53.1583,"RA_OF_ASC_NODE":117.4173,"ARG_OF_PERICENTER":70.4883,"MEAN_ANOMALY":289.6206,"EPHEMERIS_TYPE":0,"CLASSIFICATION_TYPE":"U","NORAD_CAT_ID":64677,"ELEMENT_SET_NO":999,"REV_AT_EPOCH":4040,"BSTAR":0.00031299371,"MEAN_MOTION_DOT":8.905e-5,"MEAN_MOTION_DDOT":0},{"OBJECT_NAME":"STARLINK-34525","OBJECT_ID":"2025-139Q","EPOCH":"2026-03-09T10:55:06.741696","MEAN_MOTION":15.30199814,"ECCENTRICITY":0.00011494,"INCLINATION":53.1578,"RA_OF_ASC_NODE":128.4477,"ARG_OF_PERICENTER":87.3536,"MEAN_ANOMALY":272.7596,"EPHEMERIS_TYPE":0,"CLASSIFICATION_TYPE":"U","NORAD_CAT_ID":64678,"ELEMENT_SET_NO":999,"REV_AT_EPOCH":4024,"BSTAR":0.00045252463,"MEAN_MOTION_DOT":0.00013067,"MEAN_MOTION_DDOT":0},{"OBJECT_NAME":"STARLINK-34489","OBJECT_ID":"2025-139R","EPOCH":"2026-03-09T10:45:59.802048","MEAN_MOTION":15.30197442,"ECCENTRICITY":0.00013422,"INCLINATION":53.1578,"RA_OF_ASC_NODE":128.4109,"ARG_OF_PERICENTER":81.6041,"MEAN_ANOMALY":278.5112,"EPHEMERIS_TYPE":0,"CLASSIFICATION_TYPE":"U","NORAD_CAT_ID":64679,"ELEMENT_SET_NO":999,"REV_AT_EPOCH":4024,"BSTAR":0.00082254865,"MEAN_MOTION_DOT":0.00024079,"MEAN_MOTION_DDOT":0},{"OBJECT_NAME":"STARLINK-34502","OBJECT_ID":"2025-139S","EPOCH":"2026-03-09T12:53:18.801024","MEAN_MOTION":15.30205846,"ECCENTRICITY":0.00013678,"INCLINATION":53.159,"RA_OF_ASC_NODE":127.5402,"ARG_OF_PERICENTER":86.7466,"MEAN_ANOMALY":273.3692,"EPHEMERIS_TYPE":0,"CLASSIFICATION_TYPE":"U","NORAD_CAT_ID":64680,"ELEMENT_SET_NO":999,"REV_AT_EPOCH":4026,"BSTAR":0.00079722295,"MEAN_MOTION_DOT":0.00023331,"MEAN_MOTION_DDOT":0},{"OBJECT_NAME":"STARLINK-34553","OBJECT_ID":"2025-139T","EPOCH":"2026-03-09T15:52:18.488640","MEAN_MOTION":15.3019701,"ECCENTRICITY":0.0001332,"INCLINATION":53.158,"RA_OF_ASC_NODE":126.8904,"ARG_OF_PERICENTER":73.3241,"MEAN_ANOMALY":286.7905,"EPHEMERIS_TYPE":0,"CLASSIFICATION_TYPE":"U","NORAD_CAT_ID":64681,"ELEMENT_SET_NO":999,"REV_AT_EPOCH":4028,"BSTAR":0.001076,"MEAN_MOTION_DOT":0.00031642,"MEAN_MOTION_DDOT":0},{"OBJECT_NAME":"STARLINK-34551","OBJECT_ID":"2025-139U","EPOCH":"2026-03-09T12:12:25.064352","MEAN_MOTION":15.30194616,"ECCENTRICITY":0.00013715,"INCLINATION":53.1592,"RA_OF_ASC_NODE":117.4255,"ARG_OF_PERICENTER":82.1664,"MEAN_ANOMALY":277.9492,"EPHEMERIS_TYPE":0,"CLASSIFICATION_TYPE":"U","NORAD_CAT_ID":64682,"ELEMENT_SET_NO":999,"REV_AT_EPOCH":4040,"BSTAR":0.00090664113,"MEAN_MOTION_DOT":0.00026585,"MEAN_MOTION_DDOT":0},{"OBJECT_NAME":"STARLINK-34550","OBJECT_ID":"2025-139V","EPOCH":"2026-03-09T10:12:33.794496","MEAN_MOTION":15.30193759,"ECCENTRICITY":0.00012808,"INCLINATION":53.1594,"RA_OF_ASC_NODE":128.2629,"ARG_OF_PERICENTER":81.15,"MEAN_ANOMALY":278.9645,"EPHEMERIS_TYPE":0,"CLASSIFICATION_TYPE":"U","NORAD_CAT_ID":64683,"ELEMENT_SET_NO":999,"REV_AT_EPOCH":4024,"BSTAR":0.00049018187,"MEAN_MOTION_DOT":0.00014184,"MEAN_MOTION_DDOT":0}]
